[{"OBJECT_NAME":"YAOGAN-9 01B","OBJECT_ID":"2010-009B","EPOCH":"2026-03-09T21:36:43.133472","MEAN_MOTION":13.45689777,"ECCENTRICITY":0.05298959,"INCLINATION":63.3654,"RA_OF_ASC_NODE":254.758,"ARG_OF_PERICENTER":20.1216,"MEAN_ANOMALY":341.9863,"EPHEMERIS_TYPE":0,"CLASSIFICATION_TYPE":"U","NORAD_CAT_ID":36414,"ELEMENT_SET_NO":999,"REV_AT_EPOCH":78638,"BSTAR":7.8644801e-5,"MEAN_MOTION_DOT":1.9e-7,"MEAN_MOTION_DDOT":0},{"OBJECT_NAME":"FENGYUN 1C DEB","OBJECT_ID":"1999-025BAF","EPOCH":"2026-03-09T13:44:12.836256","MEAN_MOTION":14.32019244,"ECCENTRICITY":0.0033731,"INCLINATION":98.5453,"RA_OF_ASC_NODE":289.0365,"ARG_OF_PERICENTER":58.2898,"MEAN_ANOMALY":302.1566,"EPHEMERIS_TYPE":0,"CLASSIFICATION_TYPE":"U","NORAD_CAT_ID":30941,"ELEMENT_SET_NO":999,"REV_AT_EPOCH":97868,"BSTAR":0.0018306,"MEAN_MOTION_DOT":4.904e-5,"MEAN_MOTION_DDOT":0}]
